[{"OBJECT_NAME":"GAOFEN-9 03","OBJECT_ID":"2020-039A","EPOCH":"2026-03-09T21:55:15.121344","MEAN_MOTION":15.30529116,"ECCENTRICITY":0.0013094,"INCLINATION":97.5219,"RA_OF_ASC_NODE":201.2158,"ARG_OF_PERICENTER":77.4533,"MEAN_ANOMALY":282.8172,"EPHEMERIS_TYPE":0,"CLASSIFICATION_TYPE":"U","NORAD_CAT_ID":45794,"ELEMENT_SET_NO":999,"REV_AT_EPOCH":31856,"BSTAR":0.00039258132,"MEAN_MOTION_DOT":0.00011544,"MEAN_MOTION_DDOT":0},{"OBJECT_NAME":"STARLINK-30925","OBJECT_ID":"2023-180E","EPOCH":"2026-03-08T09:03:26.187552","MEAN_MOTION":15.27588974,"ECCENTRICITY":0.00013472,"INCLINATION":43.0035,"RA_OF_ASC_NODE":60.1034,"ARG_OF_PERICENTER":257.0086,"MEAN_ANOMALY":103.0615,"EPHEMERIS_TYPE":0,"CLASSIFICATION_TYPE":"U","NORAD_CAT_ID":58406,"ELEMENT_SET_NO":999,"REV_AT_EPOCH":12730,"BSTAR":8.5748329e-5,"MEAN_MOTION_DOT":2.099e-5,"MEAN_MOTION_DDOT":0}]
